NORAD_CAT_ID,OBJECT_NAME,OBJECT_TYPE,EPOCH,MEAN_MOTION,ECCENTRICITY,INCLINATION,RA_OF_ASC_NODE,ARG_OF_PERICENTER,MEAN_ANOMALY,BSTAR,MEAN_MOTION_DOT,MEAN_MOTION_DDOT,TLE_LINE0,TLE_LINE1,TLE_LINE2,SEMIMAJOR_AXIS,PERIOD,APOGEE,PERIGEE,DECAYED
53793.0,STARLINK-4728,PAYLOAD,2023-11-02 21:48:56,15.08838791,0.0001425,53.2163,164.6211,87.9794,272.1361,-0.00010595,-1.974e-05,0.0,0 STARLINK-4728,1 53793U 22111W   23306.90898799 -.00001974  00000-0 -10595-3 0  9993,2 53793  53.2163 164.6211 0001425  87.9794 272.1361 15.08838791 64198,6917.884,95.438,540.735,538.763,0.0
53793.0,STARLINK-4728,PAYLOAD,2023-11-03 13:42:48,15.08834209,0.0001287,53.2163,161.6456,88.8221,271.2919,7.0389e-05,8.32e-06,0.0,0 STARLINK-4728,1 53793U 22111W   23307.57139535  .00000832  00000-0  70389-4 0  9991,2 53793  53.2163 161.6456 0001287  88.8221 271.2919 15.08834209 64297,6917.898,95.438,540.653,538.873,0.0
53793.0,STARLINK-4728,PAYLOAD,2023-11-03 20:04:20,15.08846098,0.0001281,53.2163,160.4564,91.1327,268.9812,4.9654e-05,5.03e-06,0.0,0 STARLINK-4728,1 53793U 22111W   23307.83634801  .00000503  00000-0  49654-4 0  9992,2 53793  53.2163 160.4564 0001281  91.1327 268.9812 15.08846098 63532,6917.862,95.437,540.613,538.841,0.0
53793.0,STARLINK-4728,PAYLOAD,2023-11-04 07:12:02,15.08839413,0.0001314,53.2164,158.3748,88.8726,271.2417,3.3016e-05,2.38e-06,0.0,0 STARLINK-4728,1 53793U 22111W   23308.30003224  .00000238  00000-0  33016-4 0  9994,2 53793  53.2164 158.3748 0001314  88.8726 271.2417 15.08839413 63605,6917.882,95.438,540.656,538.838,0.0
53793.0,STARLINK-4728,PAYLOAD,2023-11-04 13:33:35,15.08832518,0.0001298,53.2165,157.1856,85.6991,274.4149,3.9911e-05,3.47e-06,0.0,0 STARLINK-4728,1 53793U 22111W   23308.56499765  .00000347  00000-0  39911-4 0  9992,2 53793  53.2165 157.1856 0001298  85.6991 274.4149 15.08832518 64442,6917.903,95.438,540.666,538.87,0.0
53793.0,STARLINK-4728,PAYLOAD,2023-11-04 21:30:31,15.08841636,0.00013,53.2164,155.6986,85.2471,274.867,9.9347e-05,1.294e-05,0.0,0 STARLINK-4728,1 53793U 22111W   23308.89619295  .00001294  00000-0  99347-4 0  9991,2 53793  53.2164 155.6986 0001300  85.2471 274.8670 15.08841636 64490,6917.875,95.437,540.64,538.841,0.0
53793.0,STARLINK-4728,PAYLOAD,2023-11-05 13:24:22,15.08842587,0.0001332,53.2155,152.7251,84.7709,275.3435,0.00019654,2.842e-05,0.0,0 STARLINK-4728,1 53793U 22111W   23309.55859197  .00002842  00000-0  19654-3 0  9994,2 53793  53.2155 152.7251 0001332  84.7709 275.3435 15.08842587 64598,6917.872,95.437,540.659,538.816,0.0
53793.0,STARLINK-4728,PAYLOAD,2023-11-05 19:45:54,15.08851439,0.0001284,53.2157,151.5358,86.2589,273.855,0.00026023,3.857e-05,0.0,0 STARLINK-4728,1 53793U 22111W   23309.82354658  .00003857  00000-0  26023-3 0  9991,2 53793  53.2157 151.5358 0001284  86.2589 273.8550 15.08851439 63837,6917.845,95.437,540.599,538.822,0.0
53793.0,STARLINK-4728,PAYLOAD,2023-11-05 21:21:17,15.08864064,0.0001383,53.2156,151.2384,85.5903,274.5247,0.0004178,6.372e-05,0.0,0 STARLINK-4728,1 53793U 22111W   23309.88978180  .00006372  00000-0  41780-3 0  9991,2 53793  53.2156 151.2384 0001383  85.5903 274.5247 15.08864064 64643,6917.807,95.436,540.629,538.715,0.0
53793.0,STARLINK-4728,PAYLOAD,2023-11-06 06:53:35,15.08856933,0.0001381,53.2154,149.4534,88.85,271.265,0.00033001,4.97e-05,0.0,0 STARLINK-4728,1 53793U 22111W   23310.28722188  .00004970  00000-0  33001-3 0  9991,2 53793  53.2154 149.4534 0001381  88.8500 271.2650 15.08856933 63900,6917.829,95.436,540.649,538.738,0.0
53793.0,STARLINK-4728,PAYLOAD,2023-11-06 13:15:08,15.08851615,0.0001592,53.2164,148.2667,87.5429,272.5745,0.00023494,3.454e-05,0.0,0 STARLINK-4728,1 53793U 22111W   23310.55218377  .00003454  00000-0  23494-3 0  9992,2 53793  53.2164 148.2667 0001592  87.5429 272.5745 15.08851615 64749,6917.845,95.437,540.811,538.609,0.0
53793.0,STARLINK-4728,PAYLOAD,2023-11-06 19:36:41,15.08849753,0.0001423,53.2152,147.0747,95.0639,265.0516,0.00015444,2.171e-05,0.0,0 STARLINK-4728,1 53793U 22111W   23310.81714202  .00002171  00000-0  15444-3 0  9990,2 53793  53.2152 147.0747 0001423  95.0639 265.0516 15.08849753 63980,6917.851,95.437,540.7,538.731,0.0
53793.0,STARLINK-4728,PAYLOAD,2023-11-07 06:44:23,15.08837847,0.0001416,53.2168,144.9932,80.3552,279.76,-4.6098e-05,-1.021e-05,0.0,0 STARLINK-4728,1 53793U 22111W   23311.28082803 -.00001021  00000-0 -46098-4 0  9992,2 53793  53.2168 144.9932 0001416  80.3552 279.7600 15.08837847 64058,6917.887,95.438,540.732,538.772,0.0
53793.0,STARLINK-4728,PAYLOAD,2023-11-07 13:05:56,15.08819885,0.0001214,53.2172,143.8035,84.1469,275.9662,-0.00023493,-4.023e-05,0.0,0 STARLINK-4728,1 53793U 22111W   23311.54579764 -.00004023  00000-0 -23493-3 0  9996,2 53793  53.2172 143.8035 0001214  84.1469 275.9662 15.08819885 64890,6917.942,95.439,540.647,538.967,0.0
53793.0,STARLINK-4728,PAYLOAD,2023-11-07 19:27:29,15.08826857,0.0001382,53.2161,142.6146,81.4042,278.7107,-0.00025649,-4.366e-05,0.0,0 STARLINK-4728,1 53793U 22111W   23311.81075734 -.00004366  00000-0 -25649-3 0  9999,2 53793  53.2161 142.6146 0001382  81.4042 278.7107 15.08826857 64130,6917.921,95.438,540.742,538.83,0.0
53793.0,STARLINK-4728,PAYLOAD,2023-11-08 12:56:44,15.08826071,0.0001318,53.2163,139.3435,87.1354,272.9789,5.0681e-05,5.19e-06,0.0,0 STARLINK-4728,1 53793U 22111W   23312.53940343  .00000519  00000-0  50681-4 0  9995,2 53793  53.2163 139.3435 0001318  87.1354 272.9789 15.08826071 65045,6917.923,95.438,540.7,538.876,0.0
53793.0,STARLINK-4728,PAYLOAD,2023-11-08 19:18:17,15.08831731,0.0001292,53.216,138.154,84.6161,275.4979,0.00014158,1.966e-05,0.0,0 STARLINK-4728,1 53793U 22111W   23312.80436370  .00001966  00000-0  14158-3 0  9990,2 53793  53.2160 138.1540 0001292  84.6161 275.4979 15.08831731 64288,6917.906,95.438,540.664,538.877,0.0
53793.0,STARLINK-4728,PAYLOAD,2023-11-09 12:47:32,15.08830041,0.0001094,53.216,134.8837,77.3597,282.7518,0.00054629,8.415e-05,0.0,0 STARLINK-4728,1 53793U 22111W   23313.53301043  .00008415  00000-0  54629-3 0  9992,2 53793  53.2160 134.8837 0001094  77.3597 282.7518 15.08830041 65196,6917.911,95.438,540.533,539.019,0.0
53793.0,STARLINK-4728,PAYLOAD,2023-11-09 19:09:04,15.08843798,0.0001356,53.2159,133.694,78.1441,281.9703,0.00044686,6.832e-05,0.0,0 STARLINK-4728,1 53793U 22111W   23313.79796635  .00006832  00000-0  44686-3 0  9998,2 53793  53.2159 133.6940 0001356  78.1441 281.9703 15.08843798 65239,6917.869,95.437,540.672,538.796,0.0
53793.0,STARLINK-4728,PAYLOAD,2023-11-10 04:41:22,15.08848676,0.000137,53.2158,131.9099,78.6115,281.503,0.0003743,5.675e-05,0.0,0 STARLINK-4728,1 53793U 22111W   23314.19540354  .00005675  00000-0  37430-3 0  9991,2 53793  53.2158 131.9099 0001370  78.6115 281.5030 15.08848676 64499,6917.854,95.437,540.667,538.771,0.0
53793.0,STARLINK-4728,PAYLOAD,2023-11-10 18:59:50,15.08855089,0.0001362,53.2158,129.2332,77.8869,282.2276,0.00027826,4.145e-05,0.0,0 STARLINK-4728,1 53793U 22111W   23314.79155730  .00004145  00000-0  27826-3 0  9996,2 53793  53.2158 129.2332 0001362  77.8869 282.2276 15.08855089 65382,6917.834,95.437,540.641,538.757,0.0
53793.0,STARLINK-4728,PAYLOAD,2023-11-11 18:50:37,15.0884409,0.0001316,53.2155,124.7726,77.1156,282.9983,-1.102e-05,-4.63e-06,0.0,0 STARLINK-4728,1 53793U 22111W   23315.78515728 -.00000463  00000-0 -11020-4 0  9994,2 53793  53.2155 124.7726 0001316  77.1156 282.9983 15.08844090 64737,6917.868,95.437,540.643,538.822,0.0
53793.0,STARLINK-4728,PAYLOAD,2023-11-11 20:26:00,15.08845668,0.0001299,53.2166,124.4756,80.0046,280.1092,5.8701e-05,6.47e-06,0.0,0 STARLINK-4728,1 53793U 22111W   23315.85139929  .00000647  00000-0  58701-4 0  9996,2 53793  53.2166 124.4756 0001299  80.0046 280.1092 15.08845668 65543,6917.863,95.437,540.627,538.829,0.0
53793.0,STARLINK-4728,PAYLOAD,2023-11-12 18:41:24,15.08847581,0.0001368,53.2169,120.3109,86.3137,273.8012,1.9127e-05,1.7e-07,0.0,0 STARLINK-4728,1 53793U 22111W   23316.77875644  .00000017  00000-0  19127-4 0  9999,2 53793  53.2169 120.3109 0001368  86.3137 273.8012 15.08847581 65682,6917.857,95.437,540.669,538.776,0.0
53793.0,STARLINK-4728,PAYLOAD,2023-11-13 10:35:15,15.08843831,0.0001293,53.2167,117.337,91.1143,268.9997,9.4871e-05,1.222e-05,0.0,0 STARLINK-4728,1 53793U 22111W   23317.44115510  .00001222  00000-0  94871-4 0  9991,2 53793  53.2167 117.3370 0001293  91.1143 268.9997 15.08843831 64987,6917.869,95.437,540.628,538.839,0.0
53793.0,STARLINK-4728,PAYLOAD,2023-11-13 16:56:48,15.08846911,0.000129,53.2165,116.1483,88.8759,271.2381,0.00011422,1.531e-05,0.0,0 STARLINK-4728,1 53793U 22111W   23317.70611192  .00001531  00000-0  11422-3 0  9990,2 53793  53.2165 116.1483 0001290  88.8759 271.2381 15.08846911 65820,6917.859,95.437,540.617,538.832,0.0
53793.0,STARLINK-4728,PAYLOAD,2023-11-14 16:47:35,15.08838633,0.0001218,53.2163,111.6887,85.4657,274.6474,1.7798e-05,-5e-08,0.0,0 STARLINK-4728,1 53793U 22111W   23318.69971951 -.00000005  00000-0  17798-4 0  9990,2 53793  53.2163 111.6887 0001218  85.4657 274.6474 15.08838633 65176,6917.885,95.438,540.592,538.907,0.0
53793.0,STARLINK-4728,PAYLOAD,2023-11-14 19:58:21,15.08839321,0.0001241,53.2163,111.0941,84.7738,275.3395,1.9885e-05,2.9e-07,0.0,0 STARLINK-4728,1 53793U 22111W   23318.83219881  .00000029  00000-0  19885-4 0  9997,2 53793  53.2163 111.0941 0001241  84.7738 275.3395 15.08839321 65994,6917.882,95.438,540.606,538.889,0.0
53793.0,STARLINK-4728,PAYLOAD,2023-11-15 13:27:36,15.08839674,0.0001218,53.2153,107.8223,85.4328,274.6803,3.625e-06,-2.3e-06,0.0,0 STARLINK-4728,1 53793U 22111W   23319.56083902 -.00000230  00000-0  36250-5 0  9992,2 53793  53.2153 107.8223 0001218  85.4328 274.6803 15.08839674 66107,6917.881,95.438,540.589,538.904,0.0
53793.0,STARLINK-4728,PAYLOAD,2023-11-15 16:38:22,15.08841202,0.0001143,53.2142,107.226,90.3737,269.7386,2.146e-05,5.4e-07,0.0,0 STARLINK-4728,1 53793U 22111W   23319.69331703  .00000054  00000-0  21460-4 0  9990,2 53793  53.2142 107.2260 0001143  90.3737 269.7386 15.08841202 66129,6917.877,95.437,540.532,538.951,0.0
